IRIDIUM 155             
1 43573U 18061E   21008.49906335  .00000079  00000-0  21204-4 0  9997
2 43573  86.3989 166.5657 0002139  78.5738 281.5698 14.34217643128742
IRIDIUM 154             
1 43574U 18061F   21008.48001929  .00000081  00000-0  21910-4 0  9999
2 43574  86.3992 166.6125 0002171  98.5320 261.6122 14.34214979128798
IRIDIUM 163             
1 43575U 18061G   21008.53076130  .00000033  00000-0  45818-5 0  9993
2 43575  86.3991 166.5672 0001545 103.9749 256.1619 14.34214910128777
IRIDIUM 156             
1 43576U 18061H   21008.50539621  .00000085  00000-0  23432-4 0  9994
2 43576  86.3991 166.5827 0001717  87.6107 272.5285 14.34218197128768
IRIDIUM 164             
1 43577U 18061J   21008.48635853  .00000094  00000-0  26479-4 0  9990
2 43577  86.3992 166.6009 0002037 100.2846 259.8579 14.34216597128802
IRIDIUM 159             
1 43578U 18061K   21008.52442954  .00000088  00000-0  24350-4 0  9993
2 43578  86.3990 166.5634 0002111  98.3560 261.7875 14.34216653128777
IRIDIUM 180             
1 43922U 19002A   21008.31461327  .00000076  00000-0  20177-4 0  9994
2 43922  86.3977 103.5267 0002516 122.2817 237.8623 14.34216191104359
IRIDIUM 176             
1 43923U 19002B   21008.27855353  .00000168  00000-0  22763-4 0  9991
2 43923  86.6113 103.5735 0002509  99.6982 260.4519 14.72251208107064
IRIDIUM 168             
1 43924U 19002C   21008.30826779  .00000059  00000-0  14101-4 0  9992
2 43924  86.3981 103.5504 0002265 102.7619 257.3830 14.34214714104338
IRIDIUM 173             
1 43925U 19002D   21008.29558555  .00000080  00000-0  21352-4 0  9995
2 43925  86.3976 103.5253 0002212 102.4809 257.6635 14.34219982104310
IRIDIUM 169             
1 43926U 19002E   21008.36548279  .00000093  00000-0  23709-4 0  9998
2 43926  86.4248 135.0892 0006442  54.4101 305.7697 14.38611222104728
IRIDIUM 172             
1 43927U 19002F   21008.35901110  .00000094  00000-0  26502-4 0  9990
2 43927  86.3978 103.5007 0002217 104.5244 255.6198 14.34216196104330
IRIDIUM 175             
1 43928U 19002G   21008.34033423  .00000182  00000-0  24913-4 0  9995
2 43928  86.6097 103.3990 0001646  96.9274 263.2130 14.72251253107066
IRIDIUM 171             
1 43929U 19002H   21008.33998066  .00000144  00000-0  44290-4 0  9996
2 43929  86.3984 103.5942 0002301 102.6939 257.4514 14.34215409104328
IRIDIUM 170             
1 43930U 19002J   21008.28473610  .00000174  00000-0  23631-4 0  9994
2 43930  86.6112 103.5775 0002178 101.5006 258.6456 14.72253764107076
IRIDIUM 167             
1 43931U 19002K   21008.33364201  .00000081  00000-0  21806-4 0  9995
2 43931  86.3977 103.5162 0002512 116.5176 243.6278 14.34216972104328
